0 TITAN 3C TRANSTAGE DEB
1 01671U 65082AJ  13283.53012673  .00000436  00000-0  98334-4 0  7318
2 01671 032.1628 348.3814 0055500 200.2202 159.6239 14.50616072533696
0 TITAN 3C TRANSTAGE DEB
1 01671U 65082AJ  13286.14522928  .00000388  00000-0  86576-4 0  7329
2 01671 032.1626 333.2069 0055520 223.2437 136.3837 14.50618113534073
0 TITAN 3C TRANSTAGE DEB
1 01671U 65082AJ  13288.41624738  .00000581  00000-0  13398-3 0  7330
2 01671 032.1624 320.0291 0055476 243.2400 116.2558 14.50620378534404
0 TITAN 3C TRANSTAGE DEB
1 01671U 65082AJ  13291.16900903  .00000504  00000-0  11503-3 0  7349
2 01671 032.1623 304.0557 0055397 267.5073 091.9226 14.50623059534801
0 TITAN 3C TRANSTAGE DEB
1 01671U 65082AJ  13293.37123014  .00000620  00000-0  14368-3 0  7356
2 01671 032.1622 291.2770 0055312 286.9974 072.4613 14.50625412535121
0 TITAN 3C TRANSTAGE DEB
1 01671U 65082AJ  13296.12401976  .00000633  00000-0  14711-3 0  7365
2 01671 032.1621 275.3033 0055187 311.3377 048.2526 14.50629349535526
